1 27453U 02032A   04320.91141455 -.00000034  00000-0  41455-5 0  1238
2 27453  98.6868  31.4151 0010926 316.3966  43.6327 14.23594513124497
1 27453U 02032A   04320.91141455 -.00000034  00000-0  41455-5 0  1249
2 27453  98.6868  31.4151 0010926 316.3966  43.6327 14.23594513124497
1 27453U 02032A   04322.73880999  .00000248  00000-0  12789-3 0  1268
2 27453  98.6865  33.2190 0010986 310.8380  49.1995 14.23596743124750
1 27453U 02032A   04323.30108160  .00000194  00000-0  10419-3 0  1274
2 27453  98.6867  33.7749 0010936 308.4514  51.5687 14.23596712124834
1 27453U 02032A   04323.86335604  .00000194  00000-0  10419-3 0  1292
2 27453  98.6867  34.3300 0010936 306.8220  53.1955 14.23596978124919
1 27453U 02032A   04323.86336598  .00000255  00000-0  11214-3 0  1264
2 27453  98.6858  34.3330 0011098 308.0395  52.0257 14.23597050124914
1 27453U 02032A   04324.42563049  .00000092  00000-0  59827-4 0  1284
2 27453  98.6860  34.8853 0010917 305.0841  54.9289 14.23596656124999
1 27453U 02032A   04324.70676829  .00000012  00000-0  24659-4 0  1306
2 27453  98.6862  35.1631 0010930 304.1389  55.8750 14.23596409125036
1 27453U 02032A   04325.26904325  .00000003  00000-0  20740-4 0  1300
2 27453  98.6858  35.7185 0010946 302.4997  57.5130 14.23596441125110
1 27453U 02032A   04325.90160171  .00000081  00000-0  54933-4 0  1323
2 27453  98.6858  36.3428 0010915 300.6568  59.3534 14.23597019125207
1 27453U 02032A   04326.39359115  .00000203  00000-0  10845-3 0  1313
2 27453  98.6854  36.8289 0010943 299.2385  60.7691 14.23597842125275
1 27453U 02032A   04326.81529695  .00000257  00000-0  13213-3 0  1335
2 27453  98.6859  37.2457 0010950 298.2428  61.7656 14.23598360125332
1 27453U 02032A   04327.37757066  .00000327  00000-0  16253-3 0  1337
2 27453  98.6857  37.8009 0010972 296.5897  63.4164 14.23599020125410
1 27453U 02032A   04327.65870739  .00000363  00000-0  17856-3 0  1342
2 27453  98.6857  38.0784 0010951 295.6467  64.3590 14.23599439125454
1 27453U 02032A   04328.22098146  .00000240  00000-0  12479-3 0  1340
2 27453  98.6857  38.6336 0010931 293.7412  66.2616 14.23599060125539
1 27453U 02032A   04328.85353952  .00000098  00000-0  62131-4 0  1362
2 27453  98.6859  39.2585 0011028 291.9944  68.0036 14.23598653125625
1 27453U 02032A   04329.41581399  .00000029  00000-0  32163-4 0  1358
2 27453  98.6860  39.8135 0011002 290.1965  69.8021 14.23598491125702
1 27453U 02032A   04329.69695119  .00000029  00000-0  32163-4 0  1376
2 27453  98.6860  40.0910 0011002 289.3818  70.6171 14.23598532125740
1 27453U 02032A   04330.32950951  .00000060  00000-0  45416-4 0  1376
2 27453  98.6860  40.7154 0010967 287.2478  72.7519 14.23598857125834
1 27453U 02032A   04330.89178256  .00000163  00000-0  90821-4 0  1394
2 27453  98.6865  41.2707 0010933 285.2235  74.7741 14.23599580125913
1 27453U 02032A   04331.31348768  .00000268  00000-0  13694-3 0  1386
2 27453  98.6862  41.6872 0010973 284.3395  75.6585 14.23600327125972
1 27453U 02032A   04331.66490815  .00000349  00000-0  17226-3 0  1391
2 27453  98.6864  42.0344 0010942 283.2098  76.7879 14.23601013126025
1 27453U 02032A   04331.94604433  .00000336  00000-0  16677-3 0  1402
2 27453  98.6865  42.3118 0010903 282.0812  77.9127 14.23600974126064
1 27453U 02032A   04332.29746539  .00000284  00000-0  14386-3 0  1390
2 27453  98.6862  42.6590 0010912 281.3974  78.5967 14.23601010126116
1 27453U 02032A   04332.85973874  .00000256  00000-0  13163-3 0  1410
2 27453  98.6865  43.2145 0010905 279.4695  80.5248 14.23601193126197
1 27453U 02032A   04333.42201225  .00000095  00000-0  61119-4 0  1403
2 27453  98.6862  43.7697 0010878 278.1312  81.8605 14.23600629126275
1 27453U 02032A   04334.40599126  .00000077  00000-0  52930-4 0  1425
2 27453  98.6864  44.7414 0010850 275.0006  84.9949 14.23600903126417
1 27453U 02032A   04334.68712760  .00000056  00000-0  43847-4 0  1442
2 27453  98.6863  45.0190 0010838 273.9402  86.0543 14.23600937126458
1 27453U 02032A   04335.53053611  .00000302  00000-0  15197-3 0  1440
2 27453  98.6861  45.8514 0010912 271.2254  88.7684 14.23602557126571
1 27453U 02032A   04335.88195634  .00000292  00000-0  14726-3 0  1467
2 27453  98.6859  46.1983 0010887 270.0619  89.9302 14.23602670126627
1 27453U 02032A   04336.37394468  .00000373  00000-0  18280-3 0  1467
2 27453  98.6859  46.6841 0010903 268.8312  91.1617 14.23603475126694
1 27453U 02032A   04336.72536487  .00000342  00000-0  16933-3 0  1475
2 27453  98.6857  47.0313 0010940 267.3987  92.5942 14.23603619126746
1 27453U 02032A   04337.42820557  .00000227  00000-0  11882-3 0  1477
2 27453  98.6850  47.7253 0010912 265.6503  94.3404 14.23603391126844
1 27453U 02032A   04337.84991035  .00000059  00000-0  45289-4 0  1497
2 27453  98.6846  48.1411 0010976 264.3038  95.6865 14.23602771126902
1 27453U 02032A   04338.41218329  .00000084  00000-0  56080-4 0  1498
2 27453  98.6844  48.6960 0010991 262.6108  97.3821 14.23603062126983
1 27453U 02032A   04338.76360367  .00000005  00000-0  21547-4 0  1501
2 27453  98.6838  49.0429 0010978 261.1058  98.8876 14.23602858127039
1 27453U 02032A   04339.32587636  .00000120  00000-0  71854-4 0  1508
2 27453  98.6837  49.5979 0011022 259.4545 100.5425 14.23603600127111
1 27453U 02032A   04339.67729599  .00000233  00000-0  12131-3 0  1510
2 27453  98.6834  49.9446 0011012 258.2138 101.7836 14.23604383127168
1 27453U 02032A   04340.30985170  .00000299  00000-0  15044-3 0  1519
2 27453  98.6834  50.5693 0010993 256.6468 103.3493 14.23604985127250
1 27453U 02032A   04340.66127149  .00000336  00000-0  16683-3 0  1525
2 27453  98.6832  50.9159 0010993 255.4874 104.5094 14.23605433127302
1 27453U 02032A   04341.29382765  .00000304  00000-0  15279-3 0  1527
2 27453  98.6830  51.5405 0011043 253.2585 106.7399 14.23605543127396
1 27453U 02032A   04341.64524715  .00000273  00000-0  13918-3 0  1544
2 27453  98.6828  51.8870 0011058 252.0699 107.9273 14.23605652127442
1 27453U 02032A   04342.27780364  .00000031  00000-0  32661-4 0  1547
2 27453  98.6825  52.5112 0011087 249.9299 110.0679 14.23604733127533
1 27453U 02032A   04342.69950787 -.00000061  00000-0 -74364-5 0  1554
2 27453  98.6826  52.9275 0011124 248.4486 111.5498 14.23604349127596
1 27453U 02032A   04343.40234806  .00000053  00000-0  42667-4 0  1550
2 27453  98.6827  53.6206 0011167 246.2487 113.7538 14.23605009127697
1 27453U 02032A   04343.68348373  .00000102  00000-0  64029-4 0  1589
2 27453  98.6830  53.8984 0011162 245.2461 114.7575 14.23605400127734
1 27453U 02032A   04344.24575520  .00000238  00000-0  12377-3 0  1586
2 27453  98.6831  54.4532 0011215 243.2892 116.7173 14.23606293127812
1 27453U 02032A   04344.87831000  .00000201  00000-0  10737-3 0  1615
2 27453  98.6836  55.0780 0011226 241.3286 118.6750 14.23606347127909
1 27453U 02032A   04345.44058163  .00000294  00000-0  14823-3 0  1601
2 27453  98.6832  55.6330 0011286 239.3684 120.6394 14.23607074127980
1 27453U 02032A   04345.72171704  .00000294  00000-0  14823-3 0  1621
2 27453  98.6832  55.9104 0011286 238.5536 121.4539 14.23607264128026
1 27453U 02032A   04346.35427298  .00000089  00000-0  58351-4 0  1620
2 27453  98.6837  56.5351 0011266 237.0120 122.9958 14.23606431128119
1 27453U 02032A   04346.91654490 -.00000054  00000-0 -45623-5 0  1643
2 27453  98.6838  57.0905 0011294 235.4008 124.6085 14.23605868128190
1 27453U 02032A   04347.47881675 -.00000014  00000-0  13031-4 0  1633
2 27453  98.6837  57.6455 0011299 233.8153 126.1981 14.23606191128274
1 27453U 02032A   04347.75995261  .00000039  00000-0  36411-4 0  1656
2 27453  98.6841  57.9230 0011310 232.8394 127.1769 14.23606514128312
1 27453U 02032A   04348.32222409  .00000106  00000-0  65817-4 0  1654
2 27453  98.6839  58.4788 0011314 231.4684 128.5508 14.23606983128398
1 27453U 02032A   04348.88449453  .00000223  00000-0  11701-3 0  1679
2 27453  98.6841  59.0339 0011324 229.6083 130.4110 14.23607766128473
1 27453U 02032A   04349.44676482  .00000381  00000-0  18654-3 0  1664
2 27453  98.6837  59.5890 0011378 227.9742 132.0475 14.23608971128557
1 27453U 02032A   04349.72790001  .00000322  00000-0  16061-3 0  1686
2 27453  98.6836  59.8664 0011376 227.3884 132.6327 14.23608923128590
1 27453U 02032A   04350.29017108  .00000300  00000-0  15073-3 0  1688
2 27453  98.6831  60.4217 0011386 225.4375 134.5873 14.23609124128672
1 27453U 02032A   04350.85244216  .00000121  00000-0  72266-4 0  1704
2 27453  98.6829  60.9765 0011405 224.0066 136.0180 14.23608433128755
1 27453U 02032A   04351.41471363  .00000011  00000-0  24279-4 0  1699
2 27453  98.6826  61.5314 0011407 222.2429 137.7856 14.23608087128836
1 27453U 02032A   04351.76613337  .00000011  00000-0  24279-4 0  1719
2 27453  98.6826  61.8782 0011407 221.2244 138.8074 14.23608126128885
1 27453U 02032A   04351.83642662  .00000183  00000-0  80395-4 0  1700
2 27453  98.6829  61.9480 0011212 221.6087 138.4719 14.23608811128891
1 27453U 02032A   04352.39868780  .00000040  00000-0  36674-4 0  1717
2 27453  98.6826  62.5029 0011477 218.8775 141.1584 14.23608536128973
1 27453U 02032A   04352.75010705  .00000114  00000-0  69295-4 0  1721
2 27453  98.6826  62.8497 0011508 217.4132 142.6274 14.23609108129027
1 27453U 02032A   04353.31237731  .00000164  00000-0  91147-4 0  1720
2 27453  98.6836  63.4037 0011256 217.1595 142.8792 14.23609550129102
1 27453U 02032A   04353.73408046  .00000166  00000-0  91904-4 0  1740
2 27453  98.6835  63.8198 0011265 215.8055 144.2373 14.23609758129166
1 27453U 02032A   04354.36663483  .00000163  00000-0  90805-4 0  1744
2 27453  98.6836  64.4446 0011288 213.8993 146.1471 14.23609975129255
1 27453U 02032A   04354.71805370  .00000165  00000-0  91609-4 0  1763
2 27453  98.6835  64.7911 0011304 212.7919 147.2559 14.23610134129303
1 27453U 02032A   04355.28032403  .00000165  00000-0  91768-4 0  1761
2 27453  98.6836  65.3463 0011331 211.0132 149.0381 14.23610355129388
